     3.04           N: GNSS NAV DATA    R: GLONASS          RINEX VERSION / TYPE
TPP                 Reference Data Shop 20260323 133529 UTC PGM / RUN BY / DATE 
                                                            COMMENT             
                                                            COMMENT             
                                                            COMMENT             
GLUT  -.1396983862E-08  .000000000E+00      0 2411          TIME SYSTEM CORR    
    18                                                      LEAP SECONDS        
                                                            END OF HEADER       
R21 2026 03 22  8 15 00 -.291751697659E-03 -.363797880709E-11  .301200000000E+05
     -.224443603516E+04 -.309303474426E+01  .000000000000E+00  .000000000000E+00
      .104289282227E+05 -.719655990601E+00  .372529029846E-08  .400000000000E+01
      .231651103516E+05  .221128463745E-01 -.931322574615E-09  .000000000000E+00
R05 2026 03 22  8 15 00  .165295787156E-03  .909494701773E-12  .301800000000E+05
     -.162452890625E+05  .188602161407E+01  .931322574615E-09  .000000000000E+00
      .455747314453E+04 -.182433032990E+01  .186264514923E-08  .100000000000E+01
      .191539057617E+05  .203385543823E+01 -.931322574615E-09  .000000000000E+00
R12 2026 03 22  8 15 00  .667879357934E-04  .909494701773E-12  .304500000000E+05
      .128814672852E+05  .942687034607E+00 -.931322574615E-09  .000000000000E+00
      .741258935547E+04  .267511367798E+01  .372529029846E-08 -.100000000000E+01
      .207550400391E+05 -.154132652283E+01 -.931322574615E-09  .000000000000E+00
R13 2026 03 22  8 15 00 -.677583739161E-04  .000000000000E+00  .304500000000E+05
      .797141650391E+04  .942561149597E+00 -.931322574615E-09  .000000000000E+00
     -.968266992188E+04  .289303588867E+01  .000000000000E+00 -.200000000000E+01
      .221963452148E+05  .923375129700E+00 -.279396772385E-08  .000000000000E+00
R22 2026 03 22  8 15 00  .116803683341E-03  .181898940355E-11  .304500000000E+05
      .182505512695E+05 -.179509544373E+01 -.186264514923E-08  .000000000000E+00
      .113457768555E+05 -.569046974182E+00  .372529029846E-08 -.300000000000E+01
      .137555273438E+05  .285662174225E+01  .000000000000E+00  .000000000000E+00
R03 2026 03 22  8 15 00  .141062773764E-03  .909494701773E-12  .304500000000E+05
      .824677441406E+04  .122848606110E+01 -.931322574615E-09  .000000000000E+00
     -.191871401367E+05 -.158635330200E+01 -.186264514923E-08  .500000000000E+01
      .146604829102E+05 -.278235816956E+01 -.279396772385E-08  .000000000000E+00
R21 2026 03 22  8 15 00 -.291751697659E-03 -.363797880709E-11  .304500000000E+05
     -.224443603516E+04 -.309303474426E+01  .000000000000E+00  .000000000000E+00
      .104289282227E+05 -.719655990601E+00  .372529029846E-08  .400000000000E+01
      .231651103516E+05  .221128463745E-01 -.931322574615E-09  .000000000000E+00
R04 2026 03 22  8 15 00  .344629399478E-03  .272848410532E-11  .304500000000E+05
     -.528622216797E+04  .212358093262E+01  .000000000000E+00  .000000000000E+00
     -.971572216797E+04 -.232053756714E+01  .000000000000E+00  .600000000000E+01
      .230199340820E+05 -.493480682373E+00 -.279396772385E-08  .000000000000E+00
R23 2026 03 22  8 15 00 -.182021409273E-03 -.909494701773E-12  .304500000000E+05
      .246736352539E+05 -.465717315674E-01 -.186264514923E-08  .000000000000E+00
      .641303808594E+04 -.235924720764E+00  .186264514923E-08  .300000000000E+01
      .729192382813E+03  .359499835968E+01  .000000000000E+00  .000000000000E+00
R11 2026 03 22  8 15 00  .219149515033E-04 -.181898940355E-11  .304500000000E+05
      .106379252930E+05  .434756278992E+00 -.931322574615E-09  .000000000000E+00
      .221984394531E+05  .815699577332E+00  .558793544769E-08  .000000000000E+00
      .665753173828E+04 -.342091560364E+01  .931322574615E-09  .000000000000E+00
R05 2026 03 22  8 15 00  .165295787156E-03  .909494701773E-12  .305100000000E+05
     -.162452890625E+05  .188602161407E+01  .931322574615E-09  .000000000000E+00
      .455747314453E+04 -.182433032990E+01  .186264514923E-08  .100000000000E+01
      .191539057617E+05  .203385543823E+01 -.931322574615E-09  .000000000000E+00
R12 2026 03 22  8 45 00  .667888671160E-04  .909494701773E-12  .306000000000E+05
      .147598950195E+05  .110764980316E+01 -.931322574615E-09  .000000000000E+00
      .117179018555E+05  .207717418671E+01  .465661287308E-08 -.100000000000E+01
      .172158969727E+05 -.236562347412E+01  .000000000000E+00  .000000000000E+00
R11 2026 03 22  8 45 00  .219112262130E-04 -.181898940355E-11  .306000000000E+05
      .112157929688E+05  .166790962219E+00  .000000000000E+00  .000000000000E+00
      .228959511719E+05 -.329093933105E-01  .465661287308E-08  .000000000000E+00
      .321859863281E+03 -.357295799255E+01  .186264514923E-08  .000000000000E+00
R21 2026 03 22  8 45 00 -.291760079563E-03 -.363797880709E-11  .306000000000E+05
     -.782012402344E+04 -.304977226257E+01  .931322574615E-09  .000000000000E+00
      .956198779297E+04 -.240664482117E+00  .372529029846E-08  .400000000000E+01
      .223084448242E+05 -.967848777771E+00 -.931322574615E-09  .000000000000E+00
R22 2026 03 22  8 45 00  .116807408631E-03  .181898940355E-11  .306000000000E+05
      .143802993164E+05 -.247464656830E+01 -.931322574615E-09  .000000000000E+00
      .104692006836E+05 -.370123863220E+00  .465661287308E-08 -.300000000000E+01
      .182998608398E+05  .215997028351E+01 -.931322574615E-09  .000000000000E+00
R03 2026 03 22  8 45 00  .141064636409E-03  .000000000000E+00  .306000000000E+05
      .984514453125E+04  .558414459229E+00 -.186264514923E-08  .000000000000E+00
     -.216707944336E+05 -.112960147858E+01 -.279396772385E-08  .500000000000E+01
      .915035009766E+04 -.330042457581E+01 -.279396772385E-08  .000000000000E+00
R13 2026 03 22  8 45 00 -.677593052387E-04  .000000000000E+00  .306000000000E+05
      .100906137695E+05  .139708137512E+01 -.931322574615E-09  .000000000000E+00
     -.449435888672E+04  .282258605957E+01  .186264514923E-08 -.200000000000E+01
      .229776503906E+05 -.608921051025E-01 -.279396772385E-08  .000000000000E+00
R23 2026 03 22  8 45 00 -.182023271918E-03 -.909494701773E-12  .306000000000E+05
      .237798339844E+05 -.944945335388E+00 -.186264514923E-08  .000000000000E+00
      .588079248047E+04 -.313045501709E+00  .279396772385E-08  .300000000000E+01
      .708830419922E+04  .342475318909E+01  .000000000000E+00  .000000000000E+00
R04 2026 03 22  8 45 00  .344634056091E-03  .272848410532E-11  .306000000000E+05
     -.190206250000E+04  .161344146729E+01  .000000000000E+00  .000000000000E+00
     -.140213974609E+05 -.241702175140E+01 -.931322574615E-09  .600000000000E+01
      .212564755859E+05 -.145332431793E+01 -.279396772385E-08  .000000000000E+00
R05 2026 03 22  8 45 00  .165296718478E-03  .909494701773E-12  .306000000000E+05
     -.128737973633E+05  .181557464600E+01  .931322574615E-09  .000000000000E+00
      .726587890625E+03 -.240764331818E+01  .931322574615E-09  .100000000000E+01
      .220287719727E+05  .113974952698E+01 -.186264514923E-08  .000000000000E+00
R02 2026 03 22  8 45 00  .121034681797E-04  .000000000000E+00  .306000000000E+05
      .170141513672E+05 -.930621147156E+00 -.186264514923E-08  .000000000000E+00
     -.162421953125E+05  .988732337952E+00 -.279396772385E-08 -.400000000000E+01
     -.973561669922E+04 -.326414585114E+01  .000000000000E+00  .000000000000E+00
R07 2026 03 22  8 45 00  .119786709547E-03  .000000000000E+00  .306000000000E+05
     -.101400703125E+05 -.531459808350E+00  .186264514923E-08  .000000000000E+00
      .217154301758E+05  .109880447388E+01  .279396772385E-08  .500000000000E+01
     -.875302587891E+04  .331915378571E+01  .279396772385E-08  .000000000000E+00
R08 2026 03 22  8 45 00 -.375136733055E-05  .000000000000E+00  .306000000000E+05
      .232641064453E+04 -.160304832458E+01  .000000000000E+00  .000000000000E+00
      .138468769531E+05  .244964790344E+01  .000000000000E+00  .600000000000E+01
     -.212359970703E+05  .141394615173E+01  .279396772385E-08  .000000000000E+00
R09 2026 03 22  8 45 00  .315292738378E-03  .181898940355E-11  .306000000000E+05
     -.909080322266E+04 -.144947242737E+01  .931322574615E-09  .000000000000E+00
      .695473632813E+04 -.276468372345E+01 -.186264514923E-08 -.200000000000E+01
     -.227713715820E+05 -.273742675781E+00  .279396772385E-08  .000000000000E+00
R14 2026 03 22  8 45 00  .318912789226E-04  .000000000000E+00  .306000000000E+05
     -.175829589844E+04  .835889816284E+00 -.931322574615E-09  .000000000000E+00
     -.203451308594E+05  .192114925385E+01 -.186264514923E-08 -.700000000000E+01
      .153123701172E+05  .264801788330E+01 -.279396772385E-08  .000000000000E+00
R15 2026 03 22  8 45 00  .579217448831E-04  .000000000000E+00  .306000000000E+05
     -.114968979492E+05 -.200405120850E+00  .000000000000E+00  .000000000000E+00
     -.227495786133E+05 -.761976242065E-01 -.465661287308E-08  .000000000000E+00
     -.111769775391E+04  .355758857727E+01 -.186264514923E-08  .000000000000E+00
R16 2026 03 22  8 45 00  .467551872134E-04  .909494701773E-12  .306000000000E+05
     -.146368994141E+05 -.112828445435E+01  .000000000000E+00  .000000000000E+00
     -.117074165039E+05 -.208910083771E+01 -.465661287308E-08 -.100000000000E+01
     -.173150400391E+05  .236150741577E+01  .000000000000E+00  .000000000000E+00
R17 2026 03 22  8 45 00  .280346721411E-03  .272848410532E-11  .306000000000E+05
      .425862060547E+04  .313239002228E+01 -.931322574615E-09  .000000000000E+00
     -.103347636719E+05  .240546226501E+00 -.372529029846E-08  .400000000000E+01
     -.229280610352E+05  .469705581665E+00  .931322574615E-09  .000000000000E+00
